satname,norad_id,inclination_deg,eccentricity,mean_motion_rev_per_day,perigee_km,apogee_km,l1,l2
STARLINK-1454,45671,53.0527,0.0008259,15.48489099,415.5297729906106,426.7608274941513,1 45671U 20035Q   26057.52932329  .00085748  00000+0  15757-2 0  9996,2 45671  53.0527 106.3836 0008259  14.8406 345.2842 15.48489099317186
STARLINK-1456,45673,53.0495,0.0001564,15.49307652,417.6871916140708,419.8132579379808,1 45673U 20035S   26057.52567713  .00048154  00000+0  86848-3 0  9999,2 45673  53.0495  99.8686 0001564  91.7230 268.3956 15.49307652317290
STARLINK-1457,45674,53.0475,0.0009959,15.75512059,336.480698633025,349.86820678453023,1 45674U 20035T   26057.44993071  .00109251  00000+0  69732-3 0  9990,2 45674  53.0475  78.5827 0009959  24.8125 335.3371 15.75512059317559
STARLINK-1458,45675,53.0537,0.0005622,15.41437065,438.03300524765655,445.70141798319764,1 45675U 20035U   26057.53273639  .00044363  00000+0  10474-2 0  9992,2 45675  53.0537 108.4206 0005622  36.4782 323.6604 15.41437065317133
STARLINK-1460,45676,53.1066,8.74e-05,15.18934127,508.45873242706875,509.6626145803966,1 45676U 20035V   26057.91668981  .00053080  00000+0  25071-2 0  9998,2 45676  53.1066 114.5377 0000874  70.6938 337.3615 15.18934127  5634
STARLINK-1392,45677,53.1154,4.1e-05,15.20664794,503.5519793771082,504.1163010106038,1 45677U 20035W   26057.91668981  .01477020  00000+0  60675-1 0  9992,2 45677  53.1154 114.6067 0000410 132.6104 177.5613 15.20664794  5736
STARLINK-1394,45679,53.0496,0.00014,15.47692847,422.5249228244693,424.42937478613476,1 45679U 20035Y   26057.51748094  .00086142  00000+0  16291-2 0  9990,2 45679  53.0496  90.0729 0001400  94.8761 265.2405 15.47692847317421
STARLINK-1402,45685,53.0489,0.0001369,15.42852528,436.76222391358533,438.6283988004343,1 45685U 20035AE  26057.32555990  .00062914  00000+0  14102-2 0  9997,2 45685  53.0489  77.4179 0001369 246.9713 113.1147 15.42852528317590
STARLINK-1404,45686,53.1614,0.0001382,15.30199548,474.26928556767507,476.16355245269006,1 45686U 20035AF  26057.52704456  .00002837  00000+0  10787-3 0  9997,2 45686  53.1614 101.5469 0001382  85.9698 274.1461 15.30199548317265
STARLINK-1413,45689,53.1612,0.000133,15.30201333,474.2995940286073,476.1225846203679,1 45689U 20035AJ  26057.53334388  .00002471  00000+0  95526-4 0  9993,2 45689  53.1612 101.3968 0001330  81.9285 278.1867 15.30201333317180
STARLINK-1417,45693,53.0512,0.000292,15.11818926,528.6355917602714,532.6703250959936,1 45693U 20035AN  26057.49414618  .00024363  00000+0  14221-2 0  9993,2 45693  53.0512 105.0227 0002920 206.4789 153.6054 15.11818926317200
STARLINK-1420,45695,53.054,0.000309,15.513013,410.8272120434085,415.0240887613563,1 45695U 20035AQ  26057.91668981  .00110832  00000+0  18381-2 0  9994,2 45695  53.0540  74.2949 0003090  52.9001 250.9212 15.51301300  5782
STARLINK-1422,45696,53.1614,0.0001316,15.30190687,474.3409717079285,476.144781291423,1 45696U 20035AR  26057.41010038  .00000218  00000+0  19498-4 0  9992,2 45696  53.1614 101.9737 0001316  97.1325 262.9826 15.30190687317240
STARLINK-1351,45697,53.0539,0.0002567,15.50058624,414.81054733086876,418.29894207259804,1 45697U 20035AS  26057.66667824  .00023771  00000+0  42284-3 0  9998,2 45697  53.0539  74.6050 0002567  64.7379 102.7673 15.50058624  5902
STARLINK-1398,45699,53.0396,0.0004708,15.88264009,304.00239138785946,310.2972574617379,1 45699U 20035AU  26057.91668981  .00260328  00000+0  90090-3 0  9992,2 45699  53.0396 354.2010 0004708  99.4523 329.5427 15.88264009  5939
STARLINK-1400,45700,53.0524,0.0007019,15.48226828,417.1401930064676,426.6861034045187,1 45700U 20035AV  26057.72188996  .00080941  00000+0  15029-2 0  9996,2 45700  53.0524  75.5338 0007019  48.4653 311.6955 15.48226828317642
STARLINK-1403,45701,53.0544,0.0001582,15.0640171,546.1107277267647,548.3019063522761,1 45701U 20035AW  26057.46191147  .00000596  00000+0  58899-4 0  9992,2 45701  53.0544  87.0229 0001582  86.6273 273.4897 15.06401710317451
STARLINK-1407,45703,53.0365,0.0011886,15.57132441,387.9092689456411,404.0126546203928,1 45703U 20035AY  26057.86102316  .00117324  00000+0  15674-2 0  9998,2 45703  53.0365   8.4053 0011886  62.5123 297.7094 15.57132441318605
STARLINK-1411,45706,53.0454,0.0005431,15.59596016,385.1502608099563,392.50053536676023,1 45706U 20035BB  26057.35974264  .00094291  00000+0  11553-2 0  9993,2 45706  53.0454  36.6971 0005431  77.0120 283.1498 15.59596016318157
STARLINK-1423,45710,53.0519,0.0006343,15.50289645,411.5702624040241,420.1891519987803,1 45710U 20035BF  26057.64118117  .00090426  00000+0  15592-2 0  9990,2 45710  53.0519  75.1526 0006343  58.6672 301.4956 15.50289645317631
STARLINK-1433,45711,53.0517,0.0006617,15.52437938,405.1190156284165,414.10192062773694,1 45711U 20035BG  26057.68053936  .00090422  00000+0  14440-2 0  9999,2 45711  53.0517  74.1692 0006617  53.4725 306.6893 15.52437938317650
STARLINK-1434,45712,53.0566,0.0004493,15.25405766,486.4816070949946,492.65292614898226,1 45712U 20035BH  26057.30401210  .00052368  00000+0  20447-2 0  9992,2 45712  53.0566  72.7168 0004493  41.7059 318.4280 15.25405766317652
STARLINK-1465,45731,53.0544,0.0003243,15.47864652,420.76824316723923,425.1794436602777,1 45731U 20038B   26057.03015532  .00060368  00000+0  11410-2 0  9993,2 45731  53.0544 279.0104 0003243 184.3441 175.7539 15.47864652314578
STARLINK-1471,45735,53.0458,0.0002205,15.48167399,420.5877185433492,423.5866174014245,1 45735U 20038F   26057.67449950  .00029829  00000+0  56429-3 0  9999,2 45735  53.0458 194.7687 0002205 181.0709 179.0294 15.48167399315822
STARLINK-1480,45741,53.0487,0.0009443,15.46389051,420.8733023027344,433.72605000932344,1 45741U 20038M   26057.55473381  .00065202  00000+0  12936-2 0  9997,2 45741  53.0487 270.4488 0009443 135.1491 225.0280 15.46389051314758
STARLINK-1500,45744,53.0345,0.0003192,15.34042475,461.582150764556,465.9500216948054,1 45744U 20038Q   26057.53966501  .00026449  00000+0  80002-3 0  9999,2 45744  53.0345 245.0264 0003192 184.0248 176.0727 15.34042475315106
STARLINK-1504,45746,53.0222,0.0002329,15.52310487,408.40104456594054,411.5629503949667,1 45746U 20038S   26057.74463166  .00035214  00000+0  57387-3 0  9993,2 45746  53.0222 194.9554 0002329 154.3668 205.7456 15.52310487315811
STARLINK-1506,45747,53.0768,0.000316,15.25720891,486.45169343573707,490.7914848640803,1 45747U 20038T   26057.26345078  .00007368  00000+0  29817-3 0  9998,2 45747  53.0768 255.1949 0003160 178.7958 181.3048 15.25720891314944
STARLINK-1464,45751,53.0516,0.0003577,15.42650951,435.85080916898005,440.72728036140415,1 45751U 20038X   26057.55768372  .00036148  00000+0  82243-3 0  9991,2 45751  53.0516 257.4966 0003577 173.1545 186.9509 15.42650951314937
STARLINK-1477,45754,53.0489,0.0001901,15.13566327,524.0221539373069,526.6468538030786,1 45754U 20038AA  26057.54266109  .00019391  00000+0  10824-2 0  9990,2 45754  53.0489 263.5988 0001901  96.9627 263.1582 15.13566327314843
STARLINK-1478,45755,53.0519,0.0005942,15.52608022,405.081754536619,413.147724503865,1 45755U 20038AB  26057.56980215  .00091943  00000+0  14592-2 0  9993,2 45755  53.0519 251.5479 0005942 166.4707 193.6463 15.52608022315007
STARLINK-1484,45756,53.0014,0.0006923,15.94243302,285.8070346623326,295.0403237787814,1 45756U 20038AC  26057.91668981  .00347301  58215-4  91465-3 0  9999,2 45756  53.0014 112.1595 0006923  14.3096 135.7997 15.94243302  5941
STARLINK-1493,45759,53.0527,0.000162,15.45261166,429.50777848087364,431.7138127666558,1 45759U 20038AF  26057.80122785  .00022684  00000+0  47676-3 0  9990,2 45759  53.0527 256.6394 0001620 181.4499 178.6503 15.45261166314953
STARLINK-1494,45760,53.0471,0.0002773,15.7137067,353.11164126937274,356.8458272555954,1 45760U 20038AG  26057.81982098  .00094268  00000+0  72220-3 0  9994,2 45760  53.0471 205.5668 0002773 311.8430  48.2350 15.71370670315687
STARLINK-1502,45764,53.052,8.67e-05,15.451695,430.28973368806055,431.47041724894643,1 45764U 20038AL  26057.56799942  .00058595  00000+0  12157-2 0  9999,2 45764  53.0520 259.0932 0000867  81.9630 278.1474 15.45169500314918
STARLINK-1470,45772,53.0407,0.0001855,15.26783813,484.16100986357105,486.7073947796316,1 45772U 20038AU  26057.48527266  .00046530  00000+0  17461-2 0  9996,2 45772  53.0407 226.2789 0001855 136.7696 223.3448 15.26783813315367
STARLINK-1482,45773,53.1602,0.0001068,15.30196006,474.4950555346941,475.9589340839857,1 45773U 20038AV  26057.51217395  .00002226  00000+0  87256-4 0  9995,2 45773  53.1602 242.9342 0001068  75.7526 284.3593 15.30196006315136
STARLINK-1496,45780,53.0515,0.0006104,15.45935479,424.47588740767696,432.78558946275825,1 45780U 20038BC  26057.78850443  .00080911  00000+0  16265-2 0  9996,2 45780  53.0515 229.8930 0006104 161.3840 198.7391 15.45935479315326
STARLINK-1513,45786,53.1559,0.0002062,15.30204554,473.7883136369783,476.61463042284413,1 45786U 20038BJ  26057.52167022  .00003824  00000+0  14115-3 0  9999,2 45786  53.1559 243.0220 0002062  94.6827 265.4409 15.30204554315131
STARLINK-1522,46027,53.0554,0.0001435,15.06403692,546.2064566188337,548.1940284074353,1 46027U 20055A   26057.61578975 -.00000389  00000+0 -72048-5 0  9996,2 46027  53.0554 176.3303 0001435  89.1855 270.9298 15.06403692307211
STARLINK-1523,46028,53.0557,0.0001191,15.06391039,546.4142099645533,548.0638345330526,1 46028U 20055B   26057.49784954  .00000703  00000+0  66093-4 0  9999,2 46028  53.0557 176.8618 0001191  96.0074 264.1050 15.06391039307210
STARLINK-1526,46029,53.0564,0.0001233,15.06395507,546.3714311953045,548.0792255454817,1 46029U 20055C   26057.49047404  .00001781  00000+0  13843-3 0  9993,2 46029  53.0564 176.8933 0001233  93.3570 266.7560 15.06395507307204
STARLINK-1555,46032,53.0546,0.0001478,15.06367569,546.2873748577231,548.3345372735357,1 46032U 20055F   26057.60845340 -.00002635  00000+0 -15824-3 0  9997,2 46032  53.0546 176.3636 0001478  91.4916 268.6242 15.06367569307224
